#aV2010  1 31  0  0   .00000000      96 DD+AD WGS84 FIT  NGA
## 1569       .00000000   900.00000000 55227  .0000000000000
+   32     1  2  3  4  5  6  7  8  9 10 11 12 13 14 15 16 17
+         18 19 20 21 22 23 24 25 26 27 28 29 30 31 32  0  0
+          0  0  0  0  0  0  0  0  0  0  0  0  0  0  0  0  0
+          0  0  0  0  0  0  0  0  0  0  0  0  0  0  0  0  0
+          0  0  0  0  0  0  0  0  0  0  0  0  0  0  0  0  0
++         0  0  0  0  0  0  0  0  0  0  0  0  0  0  0  0  0
++         0  0  0  0  0  0  0  0  0  0  0  0  0  0  0  0  0
++         0  0  0  0  0  0  0  0  0  0  0  0  0  0  0  0  0
++         0  0  0  0  0  0  0  0  0  0  0  0  0  0  0  0  0
++         0  0  0  0  0  0  0  0  0  0  0  0  0  0  0  0  0
%c cc cc ccc ccc cccc cccc cccc cccc ccccc ccccc ccccc ccccc
%c cc cc ccc ccc cccc cccc cccc cccc ccccc ccccc ccccc ccccc
%f  0.0000000  0.000000000  0.00000000000  0.000000000000000
%f  0.0000000  0.000000000  0.00000000000  0.000000000000000
%i    0    0    0    0      0      0      0      0         0
%i    0    0    0    0      0      0      0      0         0
/*      NGA, ST. LOUIS,MO.                                  
/*   EPHEMERIS COMPUTED FROM  3 DAYS OF DATA                
/* CCCCCCCCCCCCCCCCCCCCCCCCCCCCCCCCCCCCCCCCCCCCCCCCCCCCCCCCC
/* CCCCCCCCCCCCCCCCCCCCCCCCCCCCCCCCCCCCCCCCCCCCCCCCCCCCCCCCC
*  2010  1 31  3 15   .00000000                                                 
P  1  15097.691615   1365.390124  21718.960964    -84.367032                    
V  1     59.011699  27798.963314  -1651.804914      -.035127                    
P  2   5384.439178  18439.920603  18462.616790    221.451932                    
V  2 -21263.442087 -10073.753608  15772.444552       .041712                    
P  3    555.164278 -18489.393386 -19296.012555    509.292748                    
V  3  20277.050960 -12949.762868  13583.670864       .050731                    
P  4  -9874.479350  12250.255987  21250.204796      3.374566                    
V  4 -23649.627174 -13914.091284  -2582.141792       .092575                    
P  5   2446.030312  26186.850414  -3371.592771    -11.844631                    
V  5  -2880.706257   4277.888042  31402.439982       .031074                    
P  6   5627.699005 -18982.905044 -17470.732637    255.410521                    
V  6  20234.460018 -10444.205505  17800.410693      -.040816                    
P  7 -23663.283560  -4806.516685 -11246.941742      3.539520                    
V  7 -11258.276592  -8896.029868  27351.804477      -.005694                    
P  8 -17271.662244   4129.589089 -19942.674042      2.747198                    
V  8 -20486.411393 -14403.872133  14267.374121       .003516                    
P  9  19728.988947  16401.784088  -7604.269497    103.208216                    
V  9  -8626.389319  -2411.532918 -30185.908691       .022932                    
P 10  -2297.791688  26140.503527   2388.180598    -34.198004                    
V 10  -3235.035390  -3357.956920  31657.499908      -.009550                    
P 11 -23708.974036 -11451.853889  -4986.618797    -42.669249                    
V 11   7114.506663  -2608.523782 -28968.290114      -.020832                    
P 12  11735.864090  16508.892388  17311.791965   -156.203068                    
V 12  -1642.921620  21780.607685 -19584.987299       .048450                    
P 13 -23891.781415   3970.145440  10787.464065    306.620788                    
V 13  11722.975341  -7529.251504  28382.549721      -.000676                    
P 14  21136.573374 -15063.491356   5465.885826      6.279804                    
V 14   6922.359047  -1357.403147 -31411.976288       .043773                    
P 15   7035.721269  13640.332826 -21650.450704   -310.063739                    
V 15 -23730.858807  14037.086191   1236.735585       .025990                    
P 16   2959.592538 -26043.993886   3352.880352    -36.307780                    
V 16   2575.895548   4292.188863  31771.576410      -.040710                    
P 17 -19941.081558  16151.489055   6497.689286    125.787158                    
V 17  -8556.536114   1438.342776 -30426.801540       .033936                    
P 18  15478.633414  -3426.338915 -21017.057727     45.621455                    
V 18     27.857904  27420.575877  -4766.067944       .026496                    
P 19  -8044.310156 -13038.222824 -21672.118427    -12.752637                    
V 19  24863.888610 -11980.567350  -1733.957327      -.022610                    
P 20 -14077.331056 -12353.091860  18719.288474     62.255787                    
V 20    998.052243 -24146.650586 -15016.940844      -.007622                    
P 21  22513.597721   1148.984274 -14216.249695    -37.474807                    
V 21  14556.423743  11508.723289  22858.171438      -.024767                    
P 22  12384.899225 -16883.956924 -16135.317294    180.276916                    
V 22   1809.215742  20951.344185 -20410.993726      -.010969                    
P 23 -18551.702720  -4178.879572  18641.171905    381.103176                    
V 23  19930.463614 -12683.169634  16671.085179      -.009114                    
P 24  23576.875349  10602.478390  -5450.303736    258.304750                    
V 24   4157.496723   6621.651584  30621.043684       .032978                    
P 25 -24724.502834  -8266.677142  -4137.796602     90.063934                    
V 25  -4088.508893  -4774.354475  31555.027855       .072343                    
P 26  24893.634349  -9188.297278  -4375.881318    -14.137533                    
V 26  -3676.646046   3343.838093 -31501.754908      -.033373                    
P 27  19045.274108  16114.238190  -8561.735403    121.898491                    
V 27 -11525.743630  -3360.157747 -29481.152043       .033864                    
P 28 -12709.736441  14321.868194 -17806.979125    -22.868553                    
V 28   -957.465211 -23694.221153 -18206.586847       .005336                    
P 29  22680.216023  -1246.818763  13830.138756     94.219640                    
V 29 -14300.381772  10188.258043  24564.796578       .030232                    
P 30  15021.926548   5294.482910  20878.166943    215.306413                    
V 30    487.731576  27425.540635  -7117.764159       .033540                    
P 31   6981.990010 -13280.665326  22130.478935    -53.341205                    
V 31  23898.620111  13676.428818    832.829928       .014911                    
P 32  -8284.303839 -21141.151725  14394.969163    105.519445                    
V 32   3311.725541 -17324.986518 -23827.859237      -.082029                    
EOF
